OTTER                   
1 62623U 25009Q   26068.72300813  .00012198  00000+0  45151-3 0  9990
2 62623  97.4065 151.3812 0003573 310.7710  49.3219 15.27809545 63722
STARLINK-33668          
1 63402U 25065D   26068.46037319  .00022295  00000+0  81706-3 0  9992
2 63402  42.9904 108.4811 0001442  73.3421 286.7589 15.27588199 52804
